GLOBALSTAR M027         
1 25884U 99043B   24335.91168428  .00000011  00000+0  28325-2 0  9991
2 25884  52.0173 180.3657 0022058  33.6503 326.5686 11.04371166119337
GLOBALSTAR M054         
1 25885U 99043C   24335.76724103 -.00000047  00000+0  60975-3 0  9991
2 25885  52.0163 341.2850 0006081 198.1413 332.7697 11.39206309 96435
GLOBALSTAR M053         
1 25886U 99043D   24335.76690340 -.00000064  00000+0  12868-3 0  9994
2 25886  51.9991 277.3715 0003798  93.7944 270.6574 11.27660510 97062
GLOBALSTAR M058         
1 25907U 99049A   24335.77238031 -.00000091  00000+0 -87786-4 0  9993
2 25907  51.9949 278.9919 0001213 267.6080  92.4616 11.93193041517859
GLOBALSTAR M033         
1 25909U 99049C   24335.88316467 -.00000110  00000+0 -17983-3 0  9990
2 25909  51.9889 186.7177 0011928 211.1649 148.8492 12.20292010511539
GLOBALSTAR M055         
1 25910U 99049D   24335.96418787 -.00000027  00000+0  57547-3 0  9995
2 25910  51.9997 206.8860 0008192  79.3667 280.8107 12.29415883143903
